start=new Date('2021-09-26T00:00:00.000Z').valueOf();
sats=[{"REV_AT_EPOCH":"7108","APOAPSIS":"547.817","EPOCH":"2021-09-25T12:01:07.957056","FILE":"3128274","CLASSIFICATION_TYPE":"U","LAUNCH_DATE":"2020-06-13","TIME_SYSTEM":"UTC","SITE":"AFETR","INCLINATION":"53.0557","CENTER_NAME":"EARTH","ELEMENT_SET_NO":"999","MEAN_MOTION_DOT":"-0.00001545","GP_ID":"185504991","MEAN_MOTION_DDOT":"0.0000000000000","BSTAR":"-0.00008488200000","SEMIMAJOR_AXIS":"6925.366","NORAD_CAT_ID":"45735","REF_FRAME":"TEME","MEAN_ELEMENT_THEORY":"SGP4","ARG_OF_PERICENTER":"125.1563","MEAN_MOTION":"15.06394367","DECAY_DATE":null,"RCS_SIZE":"LARGE","TLE_LINE2":"2 45735  53.0557 336.8685 0000847 125.1563 234.9506 15.06394367 71081","TLE_LINE1":"1 45735U 20038F   21268.50078654 -.00001545  00000-0 -84882-4 0  9992","ECCENTRICITY":"0.00008470","PERIAPSIS":"546.644","OBJECT_NAME":"STARLINK-1471","EPHEMERIS_TYPE":"0","COUNTRY_CODE":"US","OBJECT_TYPE":"PAYLOAD","OBJECT_ID":"2020-038F","MEAN_ANOMALY":"234.9506","RA_OF_ASC_NODE":"336.8685","PERIOD":"95.592"},{"TLE_LINE2":"2 45736  53.0553 336.9676 0001383 116.0075 244.1056 15.06407332 71082","RCS_SIZE":"LARGE","DECAY_DATE":null,"MEAN_MOTION":"15.06407332","ARG_OF_PERICENTER":"116.0075","BSTAR":"0.00027514000000","SEMIMAJOR_AXIS":"6925.326","NORAD_CAT_ID":"45736","MEAN_ELEMENT_THEORY":"SGP4","REF_FRAME":"TEME","PERIOD":"95.592","RA_OF_ASC_NODE":"336.9676","MEAN_ANOMALY":"244.1056","OBJECT_ID":"2020-038G","OBJECT_TYPE":"PAYLOAD","EPHEMERIS_TYPE":"0","COUNTRY_CODE":"US","TLE_LINE1":"1 45736U 20038G   21268.47868402  .00003820  00000-0  27514-3 0  9991","ECCENTRICITY":"0.00013830","PERIAPSIS":"546.233","OBJECT_NAME":"STARLINK-1472","INCLINATION":"53.0553","SITE":"AFETR","TIME_SYSTEM":"UTC","LAUNCH_DATE":"2020-06-13","CLASSIFICATION_TYPE":"U","APOAPSIS":"548.149","EPOCH":"2021-09-25T11:29:18.299328","FILE":"3128274","REV_AT_EPOCH":"7108","MEAN_MOTION_DDOT":"0.0000000000000","GP_ID":"185505241","MEAN_MOTION_DOT":"0.00003820","CENTER_NAME":"EARTH","ELEMENT_SET_NO":"999"},{"ARG_OF_PERICENTER":"108.5866","MEAN_MOTION":"15.06396563","REF_FRAME":"TEME","MEAN_ELEMENT_THEORY":"SGP4","BSTAR":"0.00003750900000","SEMIMAJOR_AXIS":"6925.359","NORAD_CAT_ID":"45738","TLE_LINE2":"2 45738  53.0543 336.9270 0000841 108.5866 251.5214 15.06396563 71086","DECAY_DATE":null,"RCS_SIZE":"LARGE","OBJECT_ID":"2020-038J","OBJECT_TYPE":"PAYLOAD","PERIAPSIS":"546.642","TLE_LINE1":"1 45738U 20038J   21268.48972667  .00000277  00000-0  37509-4 0  9992","OBJECT_NAME":"STARLINK-1474","ECCENTRICITY":"0.00008410","COUNTRY_CODE":"US","EPHEMERIS_TYPE":"0","PERIOD":"95.592","MEAN_ANOMALY":"251.5214","RA_OF_ASC_NODE":"336.9270","EPOCH":"2021-09-25T11:45:12.384288","FILE":"3128274","APOAPSIS":"547.807","CLASSIFICATION_TYPE":"U","REV_AT_EPOCH":"7108","INCLINATION":"53.0543","SITE":"AFETR","TIME_SYSTEM":"UTC","LAUNCH_DATE":"2020-06-13","MEAN_MOTION_DOT":"0.00000277","ELEMENT_SET_NO":"999","CENTER_NAME":"EARTH","GP_ID":"185504490","MEAN_MOTION_DDOT":"0.0000000000000"},{"PERIOD":"95.592","MEAN_ANOMALY":"295.3104","RA_OF_ASC_NODE":"295.6580","OBJECT_TYPE":"PAYLOAD","OBJECT_ID":"2020-038K","ECCENTRICITY":"0.00005680","TLE_LINE1":"1 45739U 20038K   21268.76985895  .00000198  00000-0  32192-4 0  9996","PERIAPSIS":"546.819","OBJECT_NAME":"STARLINK-1475","COUNTRY_CODE":"US","EPHEMERIS_TYPE":"0","TLE_LINE2":"2 45739  53.0543 295.6580 0000568  64.7944 295.3104 15.06400484 71686","DECAY_DATE":null,"RCS_SIZE":"LARGE","ARG_OF_PERICENTER":"64.7944","MEAN_MOTION":"15.06400484","MEAN_ELEMENT_THEORY":"SGP4","REF_FRAME":"TEME","NORAD_CAT_ID":"45739","SEMIMAJOR_AXIS":"6925.347","BSTAR":"0.00003219200000","GP_ID":"185504740","MEAN_MOTION_DDOT":"0.0000000000000","MEAN_MOTION_DOT":"0.00000198","ELEMENT_SET_NO":"999","CENTER_NAME":"EARTH","INCLINATION":"53.0543","SITE":"AFETR","LAUNCH_DATE":"2020-06-13","TIME_SYSTEM":"UTC","FILE":"3128274","EPOCH":"2021-09-25T18:28:35.813280","APOAPSIS":"547.605","CLASSIFICATION_TYPE":"U","REV_AT_EPOCH":"7168"},{"ARG_OF_PERICENTER":"90.9522","MEAN_MOTION":"15.06391023","REF_FRAME":"TEME","MEAN_ELEMENT_THEORY":"SGP4","SEMIMAJOR_AXIS":"6925.376","NORAD_CAT_ID":"45740","BSTAR":"0.00002641500000","TLE_LINE2":"2 45740  53.0553 336.8930 0000992  90.9522 269.1580 15.06391023 71089","DECAY_DATE":null,"RCS_SIZE":"LARGE","OBJECT_TYPE":"PAYLOAD","OBJECT_ID":"2020-038L","ECCENTRICITY":"0.00009920","TLE_LINE1":"1 45740U 20038L   21268.49709770  .00000112  00000-0  26415-4 0  9991","PERIAPSIS":"546.554","OBJECT_NAME":"STARLINK-1479","COUNTRY_CODE":"US","EPHEMERIS_TYPE":"0","PERIOD":"95.593","MEAN_ANOMALY":"269.1580","RA_OF_ASC_NODE":"336.8930","FILE":"3128274","EPOCH":"2021-09-25T11:55:49.241280","APOAPSIS":"547.928","CLASSIFICATION_TYPE":"U","REV_AT_EPOCH":"7108","SITE":"AFETR","INCLINATION":"53.0553","LAUNCH_DATE":"2020-06-13","TIME_SYSTEM":"UTC","MEAN_MOTION_DOT":"0.00000112","ELEMENT_SET_NO":"999","CENTER_NAME":"EARTH","GP_ID":"185505492","MEAN_MOTION_DDOT":"0.0000000000000"},{"CENTER_NAME":"EARTH","ELEMENT_SET_NO":"999","MEAN_MOTION_DOT":"0.00003160","GP_ID":"185505742","MEAN_MOTION_DDOT":"0.0000000000000","REV_AT_EPOCH":"7109","APOAPSIS":"547.973","EPOCH":"2021-09-25T11:13:18.755616","FILE":"3128274","CLASSIFICATION_TYPE":"U","TIME_SYSTEM":"UTC","LAUNCH_DATE":"2020-06-13","INCLINATION":"53.0560","SITE":"AFETR","PERIAPSIS":"546.269","TLE_LINE1":"1 45741U 20038M   21268.46757819  .00003160  00000-0  23074-3 0  9999","OBJECT_NAME":"STARLINK-1480","ECCENTRICITY":"0.00012300","EPHEMERIS_TYPE":"0","COUNTRY_CODE":"US","OBJECT_ID":"2020-038M","OBJECT_TYPE":"PAYLOAD","MEAN_ANOMALY":"272.8290","RA_OF_ASC_NODE":"337.0220","PERIOD":"95.590","NORAD_CAT_ID":"45741","SEMIMAJOR_AXIS":"6925.256","BSTAR":"0.00023074000000","MEAN_ELEMENT_THEORY":"SGP4","REF_FRAME":"TEME","ARG_OF_PERICENTER":"87.2840","MEAN_MOTION":"15.06430296","RCS_SIZE":"LARGE","DECAY_DATE":null,"TLE_LINE2":"2 45741  53.0560 337.0220 0001230  87.2840 272.8290 15.06430296 71097"},{"ELEMENT_SET_NO":"999","CENTER_NAME":"EARTH","MEAN_MOTION_DOT":"0.00005630","MEAN_MOTION_DDOT":"0.0000000000000","GP_ID":"185503990","REV_AT_EPOCH":"7107","CLASSIFICATION_TYPE":"U","FILE":"3128274","EPOCH":"2021-09-25T11:02:43.281024","APOAPSIS":"547.707","LAUNCH_DATE":"2020-06-13","TIME_SYSTEM":"UTC","SITE":"AFETR","INCLINATION":"53.0551","COUNTRY_CODE":"US","EPHEMERIS_TYPE":"0","PERIAPSIS":"546.568","TLE_LINE1":"1 45742U 20038N   21268.46022316  .00005630  00000-0  39630-3 0  9996","OBJECT_NAME":"STARLINK-1481","ECCENTRICITY":"0.00008220","OBJECT_ID":"2020-038N","OBJECT_TYPE":"PAYLOAD","RA_OF_ASC_NODE":"337.0501","MEAN_ANOMALY":"233.8009","PERIOD":"95.591","MEAN_ELEMENT_THEORY":"SGP4","REF_FRAME":"TEME","NORAD_CAT_ID":"45742","SEMIMAJOR_AXIS":"6925.273","BSTAR":"0.00039630000000","MEAN_MOTION":"15.06424742","ARG_OF_PERICENTER":"126.3056","RCS_SIZE":"LARGE","DECAY_DATE":null,"TLE_LINE2":"2 45742  53.0551 337.0501 0000822 126.3056 233.8009 15.06424742 71072"},{"GP_ID":"185504240","MEAN_MOTION_DDOT":"0.0000000000000","MEAN_MOTION_DOT":"0.00000092","CENTER_NAME":"EARTH","ELEMENT_SET_NO":"999","INCLINATION":"53.0558","SITE":"AFETR","LAUNCH_DATE":"2020-06-13","TIME_SYSTEM":"UTC","APOAPSIS":"547.976","EPOCH":"2021-09-25T11:50:31.307424","FILE":"3128274","CLASSIFICATION_TYPE":"U","REV_AT_EPOCH":"7108","PERIOD":"95.592","MEAN_ANOMALY":"269.8375","RA_OF_ASC_NODE":"336.9047","OBJECT_TYPE":"PAYLOAD","OBJECT_ID":"2020-038P","OBJECT_NAME":"STARLINK-1483","TLE_LINE1":"1 45743U 20038P   21268.49341791  .00000092  00000-0  25053-4 0  9993","PERIAPSIS":"546.439","ECCENTRICITY":"0.00011100","EPHEMERIS_TYPE":"0","COUNTRY_CODE":"US","TLE_LINE2":"2 45743  53.0558 336.9047 0001110  90.2742 269.8375 15.06402069 71089","DECAY_DATE":null,"RCS_SIZE":"LARGE","ARG_OF_PERICENTER":"90.2742","MEAN_MOTION":"15.06402069","NORAD_CAT_ID":"45743","SEMIMAJOR_AXIS":"6925.342","BSTAR":"0.00002505300000","REF_FRAME":"TEME","MEAN_ELEMENT_THEORY":"SGP4"},{"GP_ID":"185504992","MEAN_MOTION_DDOT":"0.0000000000000","ELEMENT_SET_NO":"999","CENTER_NAME":"EARTH","MEAN_MOTION_DOT":"-0.00002439","LAUNCH_DATE":"2020-06-13","TIME_SYSTEM":"UTC","SITE":"AFETR","INCLINATION":"53.0562","REV_AT_EPOCH":"7109","EPOCH":"2021-09-25T12:22:22.974816","FILE":"3128274","APOAPSIS":"548.226","CLASSIFICATION_TYPE":"U","MEAN_ANOMALY":"254.1475","RA_OF_ASC_NODE":"336.8092","PERIOD":"95.593","ECCENTRICITY":"0.00013990","TLE_LINE1":"1 45744U 20038Q   21268.51554369 -.00002439  00000-0 -14495-3 0  9990","PERIAPSIS":"546.288","OBJECT_NAME":"STARLINK-1500","COUNTRY_CODE":"US","EPHEMERIS_TYPE":"0","OBJECT_TYPE":"PAYLOAD","OBJECT_ID":"2020-038Q","DECAY_DATE":null,"RCS_SIZE":"LARGE","TLE_LINE2":"2 45744  53.0562 336.8092 0001399 105.9668 254.1475 15.06385944 71095","MEAN_ELEMENT_THEORY":"SGP4","REF_FRAME":"TEME","SEMIMAJOR_AXIS":"6925.392","BSTAR":"-0.00014495000000","NORAD_CAT_ID":"45744","ARG_OF_PERICENTER":"105.9668","MEAN_MOTION":"15.06385944"},{"TIME_SYSTEM":"UTC","LAUNCH_DATE":"2020-06-13","SITE":"AFETR","INCLINATION":"53.0557","REV_AT_EPOCH":"7108","APOAPSIS":"548.140","FILE":"3128274","EPOCH":"2021-09-25T12:06:26.755776","CLASSIFICATION_TYPE":"U","GP_ID":"185505242","MEAN_MOTION_DDOT":"0.0000000000000","CENTER_NAME":"EARTH","ELEMENT_SET_NO":"999","MEAN_MOTION_DOT":"0.00000431","DECAY_DATE":null,"RCS_SIZE":"LARGE","TLE_LINE2":"2 45745  53.0557 336.8559 0001387 103.4551 256.6593 15.06411074 71080","SEMIMAJOR_AXIS":"6925.315","BSTAR":"0.00004782600000","NORAD_CAT_ID":"45745","MEAN_ELEMENT_THEORY":"SGP4","REF_FRAME":"TEME","ARG_OF_PERICENTER":"103.4551","MEAN_MOTION":"15.06411074","MEAN_ANOMALY":"256.6593","RA_OF_ASC_NODE":"336.8559","PERIOD":"95.591","TLE_LINE1":"1 45745U 20038R   21268.50447634  .00000431  00000-0  47826-4 0  9999","OBJECT_NAME":"STARLINK-1503","PERIAPSIS":"546.219","ECCENTRICITY":"0.00013870","EPHEMERIS_TYPE":"0","COUNTRY_CODE":"US","OBJECT_ID":"2020-038R","OBJECT_TYPE":"PAYLOAD"}];
